STARLINK-4147           
1 53256U 22086Q   26017.35885096 -.00000193  00000+0  59547-5 0  9997
2 53256  53.2170  64.5559 0001271  91.7223 268.3915 15.08838279193312
STARLINK-4144           
1 53257U 22086R   26017.54287011 -.00001391  00000+0 -69367-4 0  9994
2 53257  53.2177  63.7282 0001349  88.2913 271.8234 15.08830438193342
STARLINK-4127           
1 53258U 22086S   26017.81517328 -.00001152  00000+0 -54275-4 0  9999
2 53258  53.2173  62.5081 0001239  89.5467 270.5667 15.08842918193385
STARLINK-4140           
1 53259U 22086T   26017.43977152  .00000864  00000+0  72392-4 0  9990
2 53259  53.2187  63.8341 0001162  82.1270 277.9854 15.08839120193335
STARLINK-4062           
1 53261U 22086V   26017.53180269  .00000731  00000+0  63988-4 0  9993
2 53261  53.2177  63.7764 0001272  88.7734 271.3404 15.08847570193342
STARLINK-4085           
1 53262U 22086W   26017.47292762 -.00001002  00000+0 -44843-4 0  9992
2 53262  53.2175  64.0416 0001400  95.2775 264.8377 15.08848504193333
STARLINK-4130           
1 53263U 22086X   26017.52812379  .00000428  00000+0  44982-4 0  9994
2 53263  53.2178  63.7928 0001239  91.5390 268.5744 15.08846888193346
STARLINK-3950           
1 53264U 22086Y   26017.46923993  .00001372  00000+0  10425-3 0  9996
2 53264  53.2173  64.0577 0001259  94.3236 265.7900 15.08850228193333
STARLINK-4097           
1 53265U 22086Z   26017.38828911  .00000186  00000+0  29745-4 0  9990
2 53265  53.2184  64.4206 0001375  86.8526 273.2624 15.08845611193322
STARLINK-4058           
1 53266U 22086AA  26017.39197436  .00000654  00000+0  59172-4 0  9990
2 53266  53.2181  64.4032 0001739 104.5478 255.5707 15.08849141193322
STARLINK-4060           
1 53267U 22086AB  26017.44719327 -.00002653  00000+0 -14873-3 0  9997
2 53267  53.2187  64.1587 0001227  86.7284 273.3849 15.08818772193331
STARLINK-4109           
1 53268U 22086AC  26017.51708499  .00001038  00000+0  83282-4 0  9999
2 53268  53.2181  63.8415 0001163  87.0165 273.0960 15.08846943193346
STARLINK-4057           
1 53269U 22086AD  26017.44073222  .00001371  00000+0  10417-3 0  9990
2 53269  53.2173  54.1851 0001329  92.1261 267.9883 15.08844047193465
STARLINK-4122           
1 53272U 22086AG  26017.51064680 -.00000455  00000+0 -10502-4 0  9990
2 53272  53.2176  53.8717 0001353  79.6676 280.4469 15.08844567193474
STARLINK-4051           
1 53273U 22086AH  26017.42600307  .00000825  00000+0  69900-4 0  9998
2 53273  53.2179  54.2511 0001455  87.6216 272.4943 15.08847843193453
STARLINK-4050           
1 53274U 22086AJ  26017.37081070  .00000714  00000+0  62937-4 0  9993
2 53274  53.2188  54.4985 0001520  89.2188 270.8979 15.08850377193457
STARLINK-4179           
1 53275U 22086AK  26017.81976695  .00000512  00000+0  50229-4 0  9996
2 53275  53.2181  52.4838 0001322  86.2277 273.8867 15.08844659193514
STARLINK-4174           
1 53276U 22086AL  26017.36344907 -.00000074  00000+0  13436-4 0  9995
2 53276  53.2177  54.5316 0001321  93.9175 266.1969 15.08841499193444
STARLINK-4178           
1 53277U 22086AM  26017.81241307  .00000336  00000+0  39166-4 0  9994
2 53277  53.2182  52.5470 0001293  89.9869 270.1271 15.08842139193514
STARLINK-4180           
1 53278U 22086AN  26017.81608789  .00000604  00000+0  56051-4 0  9996
2 53278  53.2164  52.5017 0001355  89.3860 270.7287 15.08842651193518
STARLINK-4169           
1 53280U 22086AQ  26017.67115357 -.00000031  00000+0  16171-4 0  9991
2 53280  53.2189   7.8254 0001353  87.3855 272.7292 15.08839810194134
STARLINK-4164           
1 53282U 22086AS  26017.47753146  .00000271  00000+0  35100-4 0  9993
2 53282  53.2181  54.0216 0001312  83.2410 276.8732 15.08840941193463
STARLINK-4175           
1 53283U 22086AT  26017.79769186 -.00000259  00000+0  17988-5 0  9992
2 53283  53.2175  52.5850 0001212  91.7155 268.3976 15.08838934193514
STARLINK-4173           
1 53285U 22086AV  26017.78666888 -.00000069  00000+0  13789-4 0  9991
2 53285  53.2197  52.6350 0001508  80.7989 279.3174 15.08827856193509
STARLINK-4165           
1 53286U 22086AW  26017.49958319  .00008408  00000+0  54542-3 0  9998
2 53286  53.2164  53.6138 0001140 102.8392 257.2728 15.08860357193463
STARLINK-4107           
1 53287U 22086AX  26017.77928545  .00000097  00000+0  24196-4 0  9997
2 53287  53.2191  52.6660 0001023  81.8759 278.2350 15.08843595193500
STARLINK-4162           
1 53288U 22086AY  26017.79033227  .00000549  00000+0  52577-4 0  9990
2 53288  53.2179  52.6176 0001524  78.7573 281.3590 15.08848464193505
STARLINK-4176           
1 53289U 22086AZ  26017.42464698  .00000220  00000+0  31920-4 0  9996
2 53289  53.2182  49.3999 0001421  86.1669 273.9485 15.08841577193510
STARLINK-4149           
1 53290U 22086BA  26017.78297334 -.00001304  00000+0 -63860-4 0  9992
2 53290  53.2187  52.6545 0001330  99.3593 260.7549 15.08833499193500
STARLINK-4166           
1 53291U 22086BB  26017.78892498  .00000557  00000+0  53060-4 0  9993
2 53291  53.2179  47.4134 0001378  85.5068 274.6081 15.08838823193572
