OBJECT_NAME,OBJECT_ID,EPOCH,MEAN_MOTION,ECCENTRICITY,INCLINATION,RA_OF_ASC_NODE,ARG_OF_PERICENTER,MEAN_ANOMALY,EPHEMERIS_TYPE,CLASSIFICATION_TYPE,NORAD_CAT_ID,ELEMENT_SET_NO,REV_AT_EPOCH,BSTAR,MEAN_MOTION_DOT,MEAN_MOTION_DDOT
STARLINK-4147,2022-086Q,2026-01-17T08:36:44.722944,15.08838279,.00012715,53.2170,64.5559,91.7223,268.3915,0,U,53256,999,19331,.595469E-5,-.193E-5,0
STARLINK-4144,2022-086R,2026-01-17T13:01:43.977504,15.08830438,.0001349,53.2177,63.7282,88.2913,271.8234,0,U,53257,999,19334,-.69367278E-4,-.1391E-4,0
STARLINK-4127,2022-086S,2026-01-17T19:33:50.971392,15.08842918,.0001239,53.2173,62.5081,89.5467,270.5667,0,U,53258,999,19338,-.5427483E-4,-.1152E-4,0
STARLINK-4140,2022-086T,2026-01-17T10:33:16.259328,15.08839120,.00011623,53.2187,63.8341,82.1270,277.9854,0,U,53259,999,19333,.72392245E-4,.864E-5,0
STARLINK-4062,2022-086V,2026-01-17T12:45:47.752416,15.08847570,.0001272,53.2177,63.7764,88.7734,271.3404,0,U,53261,999,19334,.63987631E-4,.731E-5,0
STARLINK-4085,2022-086W,2026-01-17T11:21:00.946368,15.08848504,.00014003,53.2175,64.0416,95.2775,264.8377,0,U,53262,999,19333,-.44843405E-4,-.1002E-4,0
STARLINK-4130,2022-086X,2026-01-17T12:40:29.895456,15.08846888,.00012393,53.2178,63.7928,91.5390,268.5744,0,U,53263,999,19334,.44982411E-4,.428E-5,0
STARLINK-3950,2022-086Y,2026-01-17T11:15:42.329952,15.08850228,.00012595,53.2173,64.0577,94.3236,265.7900,0,U,53264,999,19333,.10425023E-3,.1372E-4,0
STARLINK-4097,2022-086Z,2026-01-17T09:19:08.179104,15.08845611,.00013755,53.2184,64.4206,86.8526,273.2624,0,U,53265,999,19332,.2974537E-4,.186E-5,0
STARLINK-4058,2022-086AA,2026-01-17T09:24:26.584704,15.08849141,.00017397,53.2181,64.4032,104.5478,255.5707,0,U,53266,999,19332,.59172294E-4,.654E-5,0
STARLINK-4060,2022-086AB,2026-01-17T10:43:57.498528,15.08818772,.00012273,53.2187,64.1587,86.7284,273.3849,0,U,53267,999,19333,-.14873487E-3,-.2653E-4,0
STARLINK-4109,2022-086AC,2026-01-17T12:24:36.143136,15.08846943,.00011634,53.2181,63.8415,87.0165,273.0960,0,U,53268,999,19334,.83282211E-4,.1038E-4,0
STARLINK-4057,2022-086AD,2026-01-17T10:34:39.263808,15.08844047,.00013298,53.2173,54.1851,92.1261,267.9883,0,U,53269,999,19346,.10417081E-3,.1371E-4,0
STARLINK-4122,2022-086AG,2026-01-17T12:15:19.883520,15.08844567,.00013536,53.2176,53.8717,79.6676,280.4469,0,U,53272,999,19347,-.10502481E-4,-.455E-5,0
STARLINK-4051,2022-086AH,2026-01-17T10:13:26.665248,15.08847843,.00014555,53.2179,54.2511,87.6216,272.4943,0,U,53273,999,19345,.69900479E-4,.825E-5,0
STARLINK-4050,2022-086AJ,2026-01-17T08:53:58.044480,15.08850377,.00015209,53.2188,54.4985,89.2188,270.8979,0,U,53274,999,19345,.62937273E-4,.714E-5,0
STARLINK-4179,2022-086AK,2026-01-17T19:40:27.864480,15.08844659,.00013227,53.2181,52.4838,86.2277,273.8867,0,U,53275,999,19351,.5022851E-4,.512E-5,0
STARLINK-4174,2022-086AL,2026-01-17T08:43:21.999648,15.08841499,.00013218,53.2177,54.5316,93.9175,266.1969,0,U,53276,999,19344,.13436127E-4,-.74E-6,0
STARLINK-4178,2022-086AM,2026-01-17T19:29:52.489248,15.08842139,.00012937,53.2182,52.5470,89.9869,270.1271,0,U,53277,999,19351,.39166492E-4,.336E-5,0
STARLINK-4180,2022-086AN,2026-01-17T19:35:09.993696,15.08842651,.00013559,53.2164,52.5017,89.3860,270.7287,0,U,53278,999,19351,.56050748E-4,.604E-5,0
STARLINK-4169,2022-086AQ,2026-01-17T16:06:27.668448,15.08839810,.00013537,53.2189,7.8254,87.3855,272.7292,0,U,53280,999,19413,.16170849E-4,-.31E-6,0
STARLINK-4164,2022-086AS,2026-01-17T11:27:38.718144,15.08840941,.00013122,53.2181,54.0216,83.2410,276.8732,0,U,53282,999,19346,.3510031E-4,.271E-5,0
STARLINK-4175,2022-086AT,2026-01-17T19:08:40.576704,15.08838934,.00012128,53.2175,52.5850,91.7155,268.3976,0,U,53283,999,19351,.1798784E-5,-.259E-5,0
STARLINK-4173,2022-086AV,2026-01-17T18:52:48.191232,15.08827856,.00015089,53.2197,52.6350,80.7989,279.3174,0,U,53285,999,19350,.13788852E-4,-.69E-6,0
STARLINK-4165,2022-086AW,2026-01-17T11:59:23.987616,15.08860357,.00011402,53.2164,53.6138,102.8392,257.2728,0,U,53286,999,19346,.54541994E-3,.8408E-4,0
STARLINK-4107,2022-086AX,2026-01-17T18:42:10.262880,15.08843595,.00010239,53.2191,52.6660,81.8759,278.2350,0,U,53287,999,19350,.24196066E-4,.97E-6,0
STARLINK-4162,2022-086AY,2026-01-17T18:58:04.708128,15.08848464,.00015241,53.2179,52.6176,78.7573,281.3590,0,U,53288,999,19350,.5257705E-4,.549E-5,0
STARLINK-4176,2022-086AZ,2026-01-17T10:11:29.499072,15.08841577,.00014212,53.2182,49.3999,86.1669,273.9485,0,U,53289,999,19351,.31920326E-4,.22E-5,0
STARLINK-4149,2022-086BA,2026-01-17T18:47:28.896576,15.08833499,.00013307,53.2187,52.6545,99.3593,260.7549,0,U,53290,999,19350,-.6386004E-4,-.1304E-4,0
STARLINK-4166,2022-086BB,2026-01-17T18:56:03.118272,15.08838823,.00013783,53.2179,47.4134,85.5068,274.6081,0,U,53291,999,19357,.53060482E-4,.557E-5,0
